[
    {
        "Altitude(m)": 612513.8991919261,
        "Argument of Periapsis(deg)": 0.0,
        "Eccentricity": 0.0,
        "Inclination(deg)": 60.0,
        "Latitude(deg)": -28.135858368679298,
        "Longitude(deg)": 67.91314407443602,
        "Mean Anomaly(deg)": -147.2727,
        "RAAN(deg)": 330.0,
        "Satellite Name": "Test1 1465",
        "Satellite Number": 1465,
        "Semi-Major Axis(m)": 6980739.136638005,
        "Time(s)": 0
    },
    {
        "Altitude(m)": 612708.2666773725,
        "Argument of Periapsis(deg)": 0.00010418945913296404,
        "Eccentricity": 0.0,
        "Inclination(deg)": 60.0,
        "Latitude(deg)": -28.647597195842717,
        "Longitude(deg)": 68.27037472642225,
        "Mean Anomaly(deg)": -146.65259385453814,
        "RAAN(deg)": 329.9995799508602,
        "Satellite Name": "Test1 1465",
        "Satellite Number": 1465,
        "Semi-Major Axis(m)": 6980739.136638005,
        "Time(s)": 10
    },
    {
        "Altitude(m)": 612903.4608441074,
        "Argument of Periapsis(deg)": 0.0002083789182659281,
        "Eccentricity": 0.0,
        "Inclination(deg)": 60.0,
        "Latitude(deg)": -29.158095872222617,
        "Longitude(deg)": 68.63147259136306,
        "Mean Anomaly(deg)": -146.03248770907638,
        "RAAN(deg)": 329.9991599017205,
        "Satellite Name": "Test1 1465",
        "Satellite Number": 1465,
        "Semi-Major Axis(m)": 6980739.136638005,
        "Time(s)": 20
    },
    {
        "Altitude(m)": 613099.4104822358,
        "Argument of Periapsis(deg)": 0.00031256837739889213,
        "Eccentricity": 0.0,
        "Inclination(deg)": 60.0,
        "Latitude(deg)": -29.667317328935198,
        "Longitude(deg)": 68.9965491394724,
        "Mean Anomaly(deg)": -145.4123815636145,
        "RAAN(deg)": 329.9987398525808,
        "Satellite Name": "Test1 1465",
        "Satellite Number": 1465,
        "Semi-Major Axis(m)": 6980739.136638005,
        "Time(s)": 30
    },
    {
        "Altitude(m)": 613296.043900007,
        "Argument of Periapsis(deg)": 0.0004167578365318562,
        "Eccentricity": 0.0,
        "Inclination(deg)": 60.0,
        "Latitude(deg)": -30.175223506336387,
        "Longitude(deg)": 69.36571882837532,
        "Mean Anomaly(deg)": -144.7922754181527,
        "RAAN(deg)": 329.998319803441,
        "Satellite Name": "Test1 1465",
        "Satellite Number": 1465,
        "Semi-Major Axis(m)": 6980739.136638005,
        "Time(s)": 40
    },
    {
        "Altitude(m)": 613493.2889555161,
        "Argument of Periapsis(deg)": 0.0005209472956648203,
        "Eccentricity": 0.0,
        "Inclination(deg)": 60.0,
        "Latitude(deg)": -30.681775315515342,
        "Longitude(deg)": 69.73909816079717,
        "Mean Anomaly(deg)": -144.1721692726909,
        "RAAN(deg)": 329.9978997543013,
        "Satellite Name": "Test1 1465",
        "Satellite Number": 1465,
        "Semi-Major Axis(m)": 6980739.136638005,
        "Time(s)": 50
    },
    {
        "Altitude(m)": 613691.0730886275,
        "Argument of Periapsis(deg)": 0.0006251367547977843,
        "Eccentricity": 0.0,
        "Inclination(deg)": 60.0,
        "Latitude(deg)": -31.186932598445377,
        "Longitude(deg)": 70.1168062552372,
        "Mean Anomaly(deg)": -143.55206312722902,
        "RAAN(deg)": 329.99747970516154,
        "Satellite Name": "Test1 1465",
        "Satellite Number": 1465,
        "Semi-Major Axis(m)": 6980739.136638005,
        "Time(s)": 60
    },
    {
        "Altitude(m)": 613889.3233530308,
        "Argument of Periapsis(deg)": 0.0007293262139307483,
        "Eccentricity": 0.0,
        "Inclination(deg)": 60.0,
        "Latitude(deg)": -31.690654086756368,
        "Longitude(deg)": 70.4989654165922,
        "Mean Anomaly(deg)": -142.93195698176723,
        "RAAN(deg)": 329.9970596560218,
        "Satellite Name": "Test1 1465",
        "Satellite Number": 1465,
        "Semi-Major Axis(m)": 6980739.136638005,
        "Time(s)": 70
    },
    {
        "Altitude(m)": 614087.9664484952,
        "Argument of Periapsis(deg)": 0.0008335156730637124,
        "Eccentricity": 0.0,
        "Inclination(deg)": 60.0,
        "Latitude(deg)": -32.19289735909001,
        "Longitude(deg)": 70.88570019367002,
        "Mean Anomaly(deg)": -142.31185083630535,
        "RAAN(deg)": 329.99663960688207,
        "Satellite Name": "Test1 1465",
        "Satellite Number": 1465,
        "Semi-Major Axis(m)": 6980739.136638005,
        "Time(s)": 80
    },
    {
        "Altitude(m)": 614286.9287532459,
        "Argument of Periapsis(deg)": 0.0009377051321966765,
        "Eccentricity": 0.0,
        "Inclination(deg)": 60.0,
        "Latitude(deg)": -32.69361879699702,
        "Longitude(deg)": 71.27713794912601,
        "Mean Anomaly(deg)": -141.6917446908435,
        "RAAN(deg)": 329.9962195577423,
        "Satellite Name": "Test1 1465",
        "Satellite Number": 1465,
        "Semi-Major Axis(m)": 6980739.136638005,
        "Time(s)": 90
    },
    {
        "Altitude(m)": 614486.1363564901,
        "Argument of Periapsis(deg)": 0.0010418945913296407,
        "Eccentricity": 0.0,
        "Inclination(deg)": 60.0,
        "Latitude(deg)": -33.19277353934143,
        "Longitude(deg)": 71.67340942871537,
        "Mean Anomaly(deg)": -141.07163854538166,
        "RAAN(deg)": 329.99579950860254,
        "Satellite Name": "Test1 1465",
        "Satellite Number": 1465,
        "Semi-Major Axis(m)": 6980739.136638005,
        "Time(s)": 100
    },
    {
        "Altitude(m)": 614685.5150910504,
        "Argument of Periapsis(deg)": 0.0011460840504626045,
        "Eccentricity": 0.0,
        "Inclination(deg)": 60.0,
        "Latitude(deg)": -33.69031543517601,
        "Longitude(deg)": 72.07464781672354,
        "Mean Anomaly(deg)": -140.45153239991987,
        "RAAN(deg)": 329.99537945946287,
        "Satellite Name": "Test1 1465",
        "Satellite Number": 1465,
        "Semi-Major Axis(m)": 6980739.136638005,
        "Time(s)": 110
    },
    {
        "Altitude(m)": 614884.990566076,
        "Argument of Periapsis(deg)": 0.0012502735095955685,
        "Eccentricity": 0.0,
        "Inclination(deg)": 60.0,
        "Latitude(deg)": -34.18619699505421,
        "Longitude(deg)": 72.48098930302682,
        "Mean Anomaly(deg)": -139.831426254458,
        "RAAN(deg)": 329.9949594103231,
        "Satellite Name": "Test1 1465",
        "Satellite Number": 1465,
        "Semi-Major Axis(m)": 6980739.136638005,
        "Time(s)": 120
    },
    {
        "Altitude(m)": 615084.4881998833,
        "Argument of Periapsis(deg)": 0.0013544629687285324,
        "Eccentricity": 0.0,
        "Inclination(deg)": 60.0,
        "Latitude(deg)": -34.6803693407455,
        "Longitude(deg)": 72.89257364857956,
        "Mean Anomaly(deg)": -139.21132010899615,
        "RAAN(deg)": 329.99453936118334,
        "Satellite Name": "Test1 1465",
        "Satellite Number": 1465,
        "Semi-Major Axis(m)": 6980739.136638005,
        "Time(s)": 130
    },
    {
        "Altitude(m)": 615283.9332528209,
        "Argument of Periapsis(deg)": 0.0014586524278614966,
        "Eccentricity": 0.0,
        "Inclination(deg)": 60.0,
        "Latitude(deg)": -35.17278215332787,
        "Longitude(deg)": 73.3095432360956,
        "Mean Anomaly(deg)": -138.5912139635343,
        "RAAN(deg)": 329.99411931204355,
        "Satellite Name": "Test1 1465",
        "Satellite Number": 1465,
        "Semi-Major Axis(m)": 6980739.136638005,
        "Time(s)": 140
    },
    {
        "Altitude(m)": 615483.2508602202,
        "Argument of Periapsis(deg)": 0.0015628418869944607,
        "Eccentricity": 0.0,
        "Inclination(deg)": 60.0,
        "Latitude(deg)": -35.66338361962816,
        "Longitude(deg)": 73.73204363126322,
        "Mean Anomaly(deg)": -137.97110781807248,
        "RAAN(deg)": 329.9936992629039,
        "Satellite Name": "Test1 1465",
        "Satellite Number": 1465,
        "Semi-Major Axis(m)": 6980739.136638005,
        "Time(s)": 150
    },
    {
        "Altitude(m)": 615682.3660653441,
        "Argument of Periapsis(deg)": 0.0016670313461274247,
        "Eccentricity": 0.0,
        "Inclination(deg)": 60.0,
        "Latitude(deg)": -36.15212037698857,
        "Longitude(deg)": 74.16022414117494,
        "Mean Anomaly(deg)": -137.35100167261064,
        "RAAN(deg)": 329.99327921376414,
        "Satellite Name": "Test1 1465",
        "Satellite Number": 1465,
        "Semi-Major Axis(m)": 6980739.136638005,
        "Time(s)": 160
    },
    {
        "Altitude(m)": 615881.2038524094,
        "Argument of Periapsis(deg)": 0.0017712208052603888,
        "Eccentricity": 0.0,
        "Inclination(deg)": 60.0,
        "Latitude(deg)": -36.63893745634231,
        "Longitude(deg)": 74.59423685661172,
        "Mean Anomaly(deg)": -136.7308955271489,
        "RAAN(deg)": 329.99285916462435,
        "Satellite Name": "Test1 1465",
        "Satellite Number": 1465,
        "Semi-Major Axis(m)": 6980739.136638005,
        "Time(s)": 170
    },
    {
        "Altitude(m)": 616079.6891795692,
        "Argument of Periapsis(deg)": 0.001875410264393353,
        "Eccentricity": 0.0,
        "Inclination(deg)": 60.0,
        "Latitude(deg)": -37.12377822358337,
        "Longitude(deg)": 75.03423720338145,
        "Mean Anomaly(deg)": -136.11078938168703,
        "RAAN(deg)": 329.9924391154846,
        "Satellite Name": "Test1 1465",
        "Satellite Number": 1465,
        "Semi-Major Axis(m)": 6980739.136638005,
        "Time(s)": 180
    },
    {
        "Altitude(m)": 616277.7470119164,
        "Argument of Periapsis(deg)": 0.0019795997235263173,
        "Eccentricity": 0.0,
        "Inclination(deg)": 60.0,
        "Latitude(deg)": -37.606584319223344,
        "Longitude(deg)": 75.48038448924636,
        "Mean Anomaly(deg)": -135.49068323622524,
        "RAAN(deg)": 329.99201906634494,
        "Satellite Name": "Test1 1465",
        "Satellite Number": 1465,
        "Semi-Major Axis(m)": 6980739.136638005,
        "Time(s)": 190
    }
]